{
  "norad_id": 65239,
  "name": "STARLINK-34964",
  "history": [
    {
      "epoch": "2026-04-13T02:46:51.301920Z",
      "apogee_km": 550.6620421868465,
      "perigee_km": 548.3554132653426,
      "latitude_deg": 4.849760321063815e-05,
      "longitude_deg": -96.20104185311621,
      "height_km": 552.8344325098241,
      "semi_major_axis_km": 6927.645727726094,
      "eccentricity": 0.00016648,
      "inclination_deg": 97.6042,
      "raan_deg": 146.824,
      "arg_perigee_deg": 103.1878,
      "mean_anomaly_deg": 256.9535,
      "mean_motion_rev_day": 15.05650791
    },
    {
      "epoch": "2026-04-14T20:15:03.393792Z",
      "apogee_km": 550.7394581477183,
      "perigee_km": 548.2718318375719,
      "latitude_deg": -1.4973612707665214e-06,
      "longitude_deg": 1.7488703481858328,
      "height_km": 552.8062342745425,
      "semi_major_axis_km": 6927.642644992645,
      "eccentricity": 0.0001781,
      "inclination_deg": 97.6041,
      "raan_deg": 148.5274,
      "arg_perigee_deg": 101.1322,
      "mean_anomaly_deg": 259.0105,
      "mean_motion_rev_day": 15.05651796
    },
    {
      "epoch": "2026-04-15T20:10:33.317760Z",
      "apogee_km": 550.7650292743774,
      "perigee_km": 548.2322856780047,
      "latitude_deg": -7.002445232869024e-05,
      "longitude_deg": 2.874434197485297,
      "height_km": 552.7926463112666,
      "semi_major_axis_km": 6927.635657476191,
      "eccentricity": 0.0001828,
      "inclination_deg": 97.6048,
      "raan_deg": 149.5102,
      "arg_perigee_deg": 100.5429,
      "mean_anomaly_deg": 259.6003,
      "mean_motion_rev_day": 15.05654074
    },
    {
      "epoch": "2026-04-16T13:43:15.402720Z",
      "apogee_km": 550.7202362089874,
      "perigee_km": 548.2927899220094,
      "latitude_deg": 8.494998126437899e-05,
      "longitude_deg": 99.6996125065042,
      "height_km": 552.8485312189719,
      "semi_major_axis_km": 6927.643513065498,
      "eccentricity": 0.0001752,
      "inclination_deg": 97.603,
      "raan_deg": 150.2313,
      "arg_perigee_deg": 103.3159,
      "mean_anomaly_deg": 256.8264,
      "mean_motion_rev_day": 15.05651513
    },
    {
      "epoch": "2026-04-17T20:01:33.404160Z",
      "apogee_km": 550.6926963697542,
      "perigee_km": 548.300723002475,
      "latitude_deg": 2.696918520398748e-05,
      "longitude_deg": 5.125033836850668,
      "height_km": 552.8488444950447,
      "semi_major_axis_km": 6927.633709686114,
      "eccentricity": 0.00017264,
      "inclination_deg": 97.603,
      "raan_deg": 151.4763,
      "arg_perigee_deg": 104.0128,
      "mean_anomaly_deg": 256.1291,
      "mean_motion_rev_day": 15.05654709
    },
    {
      "epoch": "2026-04-18T19:57:03.310848Z",
      "apogee_km": 550.6693059221161,
      "perigee_km": 548.3222239413562,
      "latitude_deg": 5.409070401965805e-05,
      "longitude_deg": 6.250455449796955,
      "height_km": 552.8805101471976,
      "semi_major_axis_km": 6927.632764931735,
      "eccentricity": 0.0001694,
      "inclination_deg": 97.6028,
      "raan_deg": 152.4589,
      "arg_perigee_deg": 105.9312,
      "mean_anomaly_deg": 254.2102,
      "mean_motion_rev_day": 15.05655017
    },
    {
      "epoch": "2026-04-19T19:52:33.416256Z",
      "apogee_km": 550.6708050907428,
      "perigee_km": 548.3431167198787,
      "latitude_deg": 1.8875996411470275e-05,
      "longitude_deg": 7.374853843726965,
      "height_km": 552.9310436006912,
      "semi_major_axis_km": 6927.64396090531,
      "eccentricity": 0.000168,
      "inclination_deg": 97.6007,
      "raan_deg": 153.4413,
      "arg_perigee_deg": 108.0871,
      "mean_anomaly_deg": 252.0539,
      "mean_motion_rev_day": 15.05651367
    },
    {
      "epoch": "2026-04-20T02:15:21.415104Z",
      "apogee_km": 550.7060418915707,
      "perigee_km": 548.3011807297607,
      "latitude_deg": 5.405624923420825e-05,
      "longitude_deg": -88.32526372520441,
      "height_km": 552.9474142032706,
      "semi_major_axis_km": 6927.640611310665,
      "eccentricity": 0.00017357,
      "inclination_deg": 97.6004,
      "raan_deg": 153.7032,
      "arg_perigee_deg": 108.4793,
      "mean_anomaly_deg": 251.6623,
      "mean_motion_rev_day": 15.05652459
    },
    {
      "epoch": "2026-04-21T13:20:45.223008Z",
      "apogee_km": 550.5083178437799,
      "perigee_km": 548.4674395545144,
      "latitude_deg": 8.011386667860894e-05,
      "longitude_deg": 105.32453686638934,
      "height_km": 552.9204112355955,
      "semi_major_axis_km": 6927.624878699146,
      "eccentricity": 0.0001473,
      "inclination_deg": 97.5929,
      "raan_deg": 155.1433,
      "arg_perigee_deg": 111.2095,
      "mean_anomaly_deg": 248.929,
      "mean_motion_rev_day": 15.05657588
    },
    {
      "epoch": "2026-04-22T02:06:21.345120Z",
      "apogee_km": 550.501396886586,
      "perigee_km": 548.5072060615448,
      "latitude_deg": -3.528790571421004e-06,
      "longitude_deg": -86.07699819288636,
      "height_km": 552.9051231948882,
      "semi_major_axis_km": 6927.641301474066,
      "eccentricity": 0.00014393,
      "inclination_deg": 97.5907,
      "raan_deg": 155.6663,
      "arg_perigee_deg": 109.7765,
      "mean_anomaly_deg": 250.3617,
      "mean_motion_rev_day": 15.05652234
    },
    {
      "epoch": "2026-04-23T02:01:51.611232Z",
      "apogee_km": 549.9049969948546,
      "perigee_km": 549.2526832713465,
      "latitude_deg": -8.503937966311791e-06,
      "longitude_deg": -84.95507657250587,
      "height_km": 552.5168114312974,
      "semi_major_axis_km": 6927.7158401331,
      "eccentricity": 4.708e-05,
      "inclination_deg": 97.5901,
      "raan_deg": 156.6469,
      "arg_perigee_deg": 293.1314,
      "mean_anomaly_deg": 66.9863,
      "mean_motion_rev_day": 15.05627934
    },
    {
      "epoch": "2026-04-24T16:18:39.058272Z",
      "apogee_km": 549.5870527138622,
      "perigee_km": 549.366754591726,
      "latitude_deg": -3.032848985453397e-07,
      "longitude_deg": 60.837226671899,
      "height_km": 552.6033634544891,
      "semi_major_axis_km": 6927.613903652794,
      "eccentricity": 1.59e-05,
      "inclination_deg": 97.5768,
      "raan_deg": 158.209,
      "arg_perigee_deg": 123.4499,
      "mean_anomaly_deg": 236.6743,
      "mean_motion_rev_day": 15.05661166
    },
    {
      "epoch": "2026-04-25T16:14:09.148992Z",
      "apogee_km": 550.1875530647922,
      "perigee_km": 548.7632359564805,
      "latitude_deg": 1.9739224606831825e-06,
      "longitude_deg": 61.9593821718292,
      "height_km": 552.7384819778773,
      "semi_major_axis_km": 6927.612394510636,
      "eccentricity": 0.0001028,
      "inclination_deg": 97.5727,
      "raan_deg": 159.1891,
      "arg_perigee_deg": 106.1866,
      "mean_anomaly_deg": 253.9474,
      "mean_motion_rev_day": 15.05661658
    },
    {
      "epoch": "2026-04-26T16:09:39.264768Z",
      "apogee_km": 550.8728837015506,
      "perigee_km": 548.1449152992454,
      "latitude_deg": -3.1546502749326164e-05,
      "longitude_deg": 63.082838400976165,
      "height_km": 553.8077756795605,
      "semi_major_axis_km": 6927.645899500398,
      "eccentricity": 0.00019689,
      "inclination_deg": 97.5705,
      "raan_deg": 160.1706,
      "arg_perigee_deg": 154.7634,
      "mean_anomaly_deg": 205.3689,
      "mean_motion_rev_day": 15.05650735
    },
    {
      "epoch": "2026-04-27T16:05:09.727008Z",
      "apogee_km": 550.7094223527365,
      "perigee_km": 548.2833651382471,
      "latitude_deg": -7.581070070522054e-06,
      "longitude_deg": 64.20053985529084,
      "height_km": 552.4191170154287,
      "semi_major_axis_km": 6927.633393745491,
      "eccentricity": 0.0001751,
      "inclination_deg": 97.5632,
      "raan_deg": 161.1478,
      "arg_perigee_deg": 83.3356,
      "mean_anomaly_deg": 276.807,
      "mean_motion_rev_day": 15.05654812
    },
    {
      "epoch": "2026-04-28T14:24:57.418848Z",
      "apogee_km": 550.2954014303332,
      "perigee_km": 548.6978891117333,
      "latitude_deg": -8.419134193657525e-05,
      "longitude_deg": 89.2479776665436,
      "height_km": 552.8210611080897,
      "semi_major_axis_km": 6927.633645271033,
      "eccentricity": 0.0001153,
      "inclination_deg": 97.5609,
      "raan_deg": 162.061,
      "arg_perigee_deg": 108.9707,
      "mean_anomaly_deg": 251.1644,
      "mean_motion_rev_day": 15.0565473
    },
    {
      "epoch": "2026-04-29T20:43:15.441024Z",
      "apogee_km": 550.279349087733,
      "perigee_km": 548.6846111985042,
      "latitude_deg": 3.3359750615715367e-06,
      "longitude_deg": -5.335108162962328,
      "height_km": 552.8637895158034,
      "semi_major_axis_km": 6927.618980143118,
      "eccentricity": 0.0001151,
      "inclination_deg": 97.5551,
      "raan_deg": 163.2976,
      "arg_perigee_deg": 113.412,
      "mean_anomaly_deg": 246.7228,
      "mean_motion_rev_day": 15.05659511
    },
    {
      "epoch": "2026-04-30T14:15:57.381696Z",
      "apogee_km": 550.2539544768397,
      "perigee_km": 548.726551220132,
      "latitude_deg": 4.4317991663560565e-06,
      "longitude_deg": 91.48559177938282,
      "height_km": 552.8108934474104,
      "semi_major_axis_km": 6927.627252848486,
      "eccentricity": 0.00011024,
      "inclination_deg": 97.554,
      "raan_deg": 164.0136,
      "arg_perigee_deg": 109.5546,
      "mean_anomaly_deg": 250.58,
      "mean_motion_rev_day": 15.05656814
    },
    {
      "epoch": "2026-05-02T09:19:51.620160Z",
      "apogee_km": 550.6247332486873,
      "perigee_km": 548.374636853383,
      "latitude_deg": 7.23241064278344e-07,
      "longitude_deg": 165.49697684231901,
      "height_km": 552.6808976236503,
      "semi_major_axis_km": 6927.636685051035,
      "eccentricity": 0.0001624,
      "inclination_deg": 97.545,
      "raan_deg": 165.7696,
      "arg_perigee_deg": 95.9652,
      "mean_anomaly_deg": 264.176,
      "mean_motion_rev_day": 15.05653739
    }
  ]
}